GLOBAL-2                
1 43812U 18099BG  26068.69955396  .00003970  00000+0  26145-3 0  9998
2 43812  97.3697 109.3280 0007454 127.1924 232.9986 15.08046936396919
STARLINK-5451           
1 54771U 22175P   26068.30250648 -.00000196  00000+0  57376-5 0  9990
2 54771  53.2183  40.6577 0000857 111.6309 248.4774 15.08848431179935
